#dP2024  5  8  0  0  0.00000000      96 __u+U IGS20 FIT  IAC
## 2313 259200.00000000   900.00000000 60438 0.0000000000000
+  119   C06C07C08C09C10C11C12C13C14C16C19C20C21C22C23C24C25
+        C26C27C28C29C30C32C33C34C35C36C37C38C39C40C41C42C43
+        C44C45C46E02E03E04E05E07E08E09E10E11E12E13E14E15E18
+        E19E21E24E25E26E27E30E31E33E34E36G02G03G04G05G06G07
+        G08G09G10G11G12G13G14G15G16G17G18G19G20G21G22G23G24
+        G25G26G27G28G29G30G31G32J02J03J04R01R02R03R04R05R07
+        R08R09R11R12R13R14R15R16R17R18R19R20R21R22R24R25R26
++        10  9  9 10  9  7  7  7  7  9  6  6  7  7  7  5  5
++         8  7  6  6  6  5  5  6  6  6  6  9  9  7  7  7  7
++         7  7  4  6  6  4  6  5  5  6  6  5  5  6  6  5  6
++         7  6  7  6  7  7  7  7  6  5  6  6  9  5  6  6  5
++         5  4  9  6  5  4  8  6  5  6  5  6  7  6  6  5  4
++         6  6  6  6  6  6  7  5  9  6  4  8  6  6  6  6  6
++         6  7  5  7  8  8  7  5  6  4  7  7  5  5  7  6  6
%c M  cc GPS ccc cccc cccc cccc cccc ccccc ccccc ccccc ccccc
%c cc cc ccc ccc cccc cccc cccc cccc ccccc ccccc ccccc ccccc
%f  0.0000000  0.000000000  0.00000000000  0.000000000000000
%f  0.0000000  0.000000000  0.00000000000  0.000000000000000
%i    0    0    0    0      0      0      0      0         0
%i    0    0    0    0      0      0      0      0         0
/* INFORMATION & ANALYSIS CENTER (IAC)      ULTRA-RAPID DATA
/* S/V CLOCKS ARE ALIGNED TO GNSS TIME                      
/* G:C1WC2W R:C1PC2P E:C1XC5X C:C2IC6I J:C1CC2S             
/* PCV:IGS20_2290 OL/AL:FES2004  NONE     YN ORB:CoN CLK:CoN
*  2024 05 08  7 30  0.00000000
PC06  -8161.117953  23403.347021 -34029.568160    405.144858
PC07 -15661.751651  38177.067813   8146.763329   -749.471731
PC08   -181.634151  34913.493376  23777.692219    -94.698746
PC09   -761.071249  24542.558387 -33747.283651   -870.803175
PC10  -8053.744385  38239.250041  15417.516526     29.480015
PC11   8710.211180  13938.523441  22614.924604    551.521185
PC12 -12990.867286  15248.950159  19459.658166   -242.831987
PC13   4762.795869  38087.874714  17906.198621    434.677782
PC14   2990.499540  23002.326848 -15450.396667    830.515759
PC16 -13311.238034  21331.485176 -33597.790707   -507.544221
PC19  -9428.497174 -15796.355255  21020.827516   -912.986188
PC20   2857.288996 -26269.670715   9050.073654   -441.388654
PC21 -14641.110786  21692.950955   9649.675431   -966.021720
PC22 -17057.738876   4369.660396  21639.268261    -12.205826
PC23  21533.820097   7070.876020  16287.261999   -778.077090
PC24   4496.681491  22663.619728 -15675.439089    927.175376
PC25  18968.444971  20472.636308    605.419919    394.367105
PC26 -11545.231733  11547.120780 -22647.475103   -288.239875
PC27  20897.414158 -13051.370271 -13118.822474    309.846942
PC28  27618.162539  -3447.701612   2036.537389    237.383821
PC29 -18071.312417  -9704.791821 -18930.320332    278.533079
PC30   2852.498010 -16651.968240 -22219.634839    -72.309489
PC32  14487.525297 -21807.818851  -9677.641187   -618.346621
PC33   9506.094836  15777.321551 -20949.295787   -966.371232
PC34  -1028.239374  16492.988126  22471.877435    429.027843
PC35 -27500.349090   4269.557984  -2338.898938    368.362305
PC36 -18429.069934 -20944.036571   -491.233067     75.086850
PC37  12010.136798 -11047.195284  22648.637288   -970.566620
PC38  -5866.451541  31093.003416  27979.676568    153.781127
PC39 -17656.836864  20591.251922 -32268.549557     -8.274946
PC40 -22973.119045  34494.487813   6870.642286    -69.136822
PC41  16922.955537  -3537.005998 -21855.381764   -942.639206
PC42  -4008.936832  26569.837243  -7409.986364   -442.737807
PC43  17227.887481  10337.535524  19343.159378     70.863538
PC44 -20538.574169  13844.945275  12865.118585    466.881174
PC45 -21452.780483  -7282.898528 -16281.324959    -84.519196
PC46  -5131.561512 -22811.789542  15202.254370   -146.421951
PE02  14726.555355 -11367.231756  23014.609209    125.680811
PE03  25166.483145 -15004.294122  -4268.870631   -112.333224
PE04 -13349.805193  22282.116061 -14172.809908   -391.910208
PE05  21961.949028    931.920397 -19816.893336   4745.721728
PE07  -5517.863459 -16672.724630  23840.675439   -118.911298
PE08  14117.847235 -22202.810115  13584.082865   -267.292866
PE09   5355.429208  16594.432348 -23907.569672   -435.120720
PE10   6571.714434  18397.035061  22227.295535   -623.134143
PE11  17069.506833  18452.502985  15600.300192   2906.258370
PE12  -3899.956232  15748.279113  24748.419265  -1028.772681
PE13 -16580.293209 -18493.926530 -16111.775131    -21.455643
PE14  -4413.852479 -20379.473538 -22616.164024     29.640471
PE15   4438.428079 -15462.599727 -24846.459021   -101.619595
PE18  17873.452785   6946.129323  18652.816994     86.553542
PE19 -25597.545600  13489.904530   6245.488290   -102.530753
PE21 -16577.447724 -10431.633181 -22197.559855   -593.357511
PE24   8546.852893  27184.161910   8023.517172   -750.483147
PE25  16510.030015  10882.337385  22028.226318      4.249245
PE26 -27647.690540 -10293.687961   2451.654284    448.176004
PE27  -8801.654665 -27003.034521  -8331.519412   -343.946290
PE30   4250.377189 -27390.398913  10363.470830   -278.149963
PE31  -4064.519346  27459.999898 -10272.942710    -22.913843
PE33 -22873.973849   3024.826379  18541.299128     11.413998
PE34  22535.262312  -3457.724722 -18887.608944   -110.032650
PE36  27538.719071  10668.984472  -1879.250951   -224.117538
PG02 -19761.512482 -13836.241790 -10946.485951   -439.990223
PG03 -12184.103017 -18916.898135  14059.265277    352.232843
PG04 -13058.354213  -8822.622682  21416.271748    356.307708
PG05   5644.615493  25895.591827   -750.426485   -171.934772
PG06 -14730.832609   8489.893257  20497.255499    284.029032
PG07 -25389.482364  -5170.497264  -6350.206839   -124.246418
PG08  -4230.929278 -15879.728180 -20891.174509    166.548083
PG09 -21183.660371   3385.103140  15614.770143    188.465685
PG10  11315.209474 -13231.520008 -19750.049965    -19.627840
PG11  -1252.881561  15678.320940  21432.268964   -656.803330
PG12  10409.103687  20814.354049  12565.497912   -503.469473
PG13  -5943.047915  18177.759522 -18534.242229    648.840014
PG14 -13869.161287   9136.098409 -20655.398146    395.480800
PG15   6334.905886  15801.922832 -20843.905203    156.720427
PG16    -42.744256 -26190.766514   2225.001748   -297.198700
PG17 -22922.130810  12954.918866  -3671.126187    707.935286
PG18  25005.195209   4493.362688  -8067.549403   -607.268738
PG19 -19874.474833  16564.700421   4831.403774    479.053385
PG20    227.023279  24434.507189  10655.022188    377.361458
PG21 -15898.018735 -15478.965760 -14864.994545    122.873361
PG22 -10552.935514  17637.652875 -16561.696940    -10.610712
PG23  14978.102638    114.515476 -21924.050755    220.110030
PG24  17726.217262  15334.934553 -13291.253797   -467.566240
PG25  15082.937117  11896.301457  18110.697191    495.327890
PG26   6284.868313 -20990.243606  14601.890887    155.977000
PG27   7536.128483 -20090.459200 -15659.013971    -22.917471
PG28  16880.363131  -7961.543590  18883.684237   -234.959071
PG29  20166.832586    599.407763  17277.719153   -599.217462
PG30 -21146.240446   3979.745207 -15596.002237   -393.679338
PG31   6925.064023 -13629.335649  21515.897233   -227.888520
PG32  21250.122101 -15623.263205  -1785.195000   -618.379683
PJ02 -21046.329467  30274.261015 -15642.024828     -0.111354
PJ03 -29069.242133  23038.260704  25208.954191      0.141139
PJ04 -30826.271083  27843.024967  13106.635232     50.351569
PR01 -15363.219314  16164.383303  12372.661901     84.730147
PR02 -10832.449182  22655.970870  -4605.195233    -22.896901
PR03    643.241592  16867.957227 -19093.487476     99.740225
PR04  11132.490834   1916.973267 -22835.112919    235.452996
PR05  15895.611773 -13912.949384 -14267.821050    131.184533
PR07  -1324.791417 -16201.126661  19686.967850     81.923536
PR08 -11416.268680  -1627.640403  22820.067442    -75.359854
PR09  -1189.035550 -18420.758027  17666.128049    185.363028
PR11 -16090.983480 -15049.811790 -12861.011864     25.443733
PR12 -10832.021154   3178.481106 -22848.412968     39.889487
PR13   -757.412147  16675.763209 -19300.734930    -47.169483
PR14  11932.987782  22379.502812  -2605.008139     26.452833
PR15  16049.729900  13869.255351  14180.731812     80.023581
PR16  10817.237397  -2941.879727  22920.273323     25.401046
PR17  11052.259346   9615.646623  20893.920785     84.876719
PR18  23452.806107   4424.839343   8938.870478    140.993918
PR19  24727.264022  -1558.605402  -6073.710177   -275.859329
PR20   9676.618789  -9229.451570 -21709.488232   -112.463472
PR21 -10796.437220  -9660.611699 -20993.415378    -99.082333
PR22 -23858.224739  -4675.533434  -7722.101334    113.252263
PR24  -8713.337202  10194.367417  21705.877375    -54.949951
PR25 -10851.772981 -10286.736179 -20659.215322    -34.358568
PR26 -10784.664356  -2807.287689  22967.329224    -20.821249
EOF
